NORAD_CAT_ID,OBJECT_NAME,OBJECT_TYPE,EPOCH,MEAN_MOTION,ECCENTRICITY,INCLINATION,RA_OF_ASC_NODE,ARG_OF_PERICENTER,MEAN_ANOMALY,BSTAR,MEAN_MOTION_DOT,MEAN_MOTION_DDOT,TLE_LINE0,TLE_LINE1,TLE_LINE2,SEMIMAJOR_AXIS,PERIOD,APOGEE,PERIGEE,DECAYED
52834.0,STARLINK-4108,PAYLOAD,2023-01-25 05:35:47,15.08846026,0.0001229,53.2161,109.3361,78.8695,281.2436,0.00036884,5.588e-05,0.0,0 STARLINK-4108,1 52834U 22062E   23025.23319229  .00005588  00000-0  36884-3 0  9995,2 52834  53.2161 109.3361 0001229  78.8695 281.2436 15.08846026 33767,6917.861999999999,95.437,540.577,538.877,0.0
52834.0,STARLINK-4108,PAYLOAD,2023-01-25 11:57:20,15.08838674,0.0001065,53.2165,108.1446,70.9155,289.1952,0.00024513,3.615e-05,0.0,0 STARLINK-4108,1 52834U 22062E   23025.49815471  .00003615  00000-0  24513-3 0  9998,2 52834  53.2165 108.1446 0001065  70.9155 289.1952 15.08838674 33809,6917.884,95.438,540.486,539.013,0.0
52834.0,STARLINK-4108,PAYLOAD,2023-01-26 11:48:07,15.08853441,0.0001209,53.2175,103.6843,74.0743,286.0382,0.00063053,9.765e-05,0.0,0 STARLINK-4108,1 52834U 22062E   23026.49175311  .00009765  00000-0  63053-3 0  9995,2 52834  53.2175 103.6843 0001209  74.0743 286.0382 15.08853441 33957,6917.839,95.437,540.5409999999999,538.868,0.0
52834.0,STARLINK-4108,PAYLOAD,2023-01-27 05:17:22,15.08844254,9.8e-05,53.2172,100.4137,86.6904,273.42,0.00019573,2.829e-05,0.0,0 STARLINK-4108,1 52834U 22062E   23027.22039448  .00002829  00000-0  19573-3 0  9999,2 52834  53.2172 100.4137 0000980  86.6904 273.4200 15.08844254 34062,6917.866999999999,95.437,540.41,539.054,0.0
52834.0,STARLINK-4108,PAYLOAD,2023-01-27 11:38:54,15.08849015,0.000107,53.2175,99.2237,91.2534,268.8581,0.00032901,4.953e-05,0.0,0 STARLINK-4108,1 52834U 22062E   23027.48535334  .00004953  00000-0  32901-3 0  9992,2 52834  53.2175  99.2237 0001070  91.2534 268.8581 15.08849015 34108,6917.853,95.437,540.4580000000001,538.9780000000001,0.0
52834.0,STARLINK-4108,PAYLOAD,2023-01-27 21:11:13,15.08837006,0.0001115,53.2172,97.4402,96.0881,264.0238,0.00013792,1.908e-05,0.0,0 STARLINK-4108,1 52834U 22062E   23027.88279614  .00001908  00000-0  13792-3 0  9996,2 52834  53.2172  97.4402 0001115  96.0881 264.0238 15.08837006 34167,6917.89,95.438,540.526,538.9830000000001,0.0
52834.0,STARLINK-4108,PAYLOAD,2023-01-28 05:08:09,15.08838008,0.0001367,53.2186,95.9542,105.4074,254.7069,-2.2486e-05,-6.46e-06,0.0,0 STARLINK-4108,1 52834U 22062E   23028.21399838 -.00000646  00000-0 -22486-4 0  9996,2 52834  53.2186  95.9542 0001367 105.4074 254.7069 15.08838008 34215,6917.886,95.438,540.697,538.806,0.0
52834.0,STARLINK-4108,PAYLOAD,2023-01-28 09:54:18,15.08838443,0.0001276,53.2185,95.0628,105.1222,254.9911,-1.8917e-06,-3.18e-06,0.0,0 STARLINK-4108,1 52834U 22062E   23028.41271605 -.00000318  00000-0 -18917-5 0  9990,2 52834  53.2185  95.0628 0001276 105.1222 254.9911 15.08838443 34245,6917.885,95.438,540.633,538.867,0.0
52834.0,STARLINK-4108,PAYLOAD,2023-01-28 21:02:00,15.088401,0.0001238,53.219,92.9818,96.4493,263.6641,9.2351e-05,1.182e-05,0.0,0 STARLINK-4108,1 52834U 22062E   23028.87639749  .00001182  00000-0  92351-4 0  9998,2 52834  53.2190  92.9818 0001238  96.4493 263.6641 15.08840100 34316,6917.88,95.438,540.602,538.889,0.0
52834.0,STARLINK-4108,PAYLOAD,2023-01-29 12:55:52,15.08840307,0.0001203,53.2188,90.0068,93.1563,266.9567,0.00011379,1.524e-05,0.0,0 STARLINK-4108,1 52834U 22062E   23029.53879955  .00001524  00000-0  11379-3 0  9997,2 52834  53.2188  90.0068 0001203  93.1563 266.9567 15.08840307 34416,6917.879,95.438,540.577,538.912,0.0
52834.0,STARLINK-4108,PAYLOAD,2023-01-29 20:52:48,15.08838031,9.98e-05,53.2175,88.518,96.1014,264.0092,6.371e-05,7.26e-06,0.0,0 STARLINK-4108,1 52834U 22062E   23029.87000049  .00000726  00000-0  63710-4 0  9994,2 52834  53.2175  88.5180 0000998  96.1014 264.0092 15.08838031 34461,6917.886,95.438,540.442,539.061,0.0
52834.0,STARLINK-4108,PAYLOAD,2023-01-30 04:49:44,15.08834333,9.54e-05,53.2167,87.032,87.7951,272.3151,0.00017545,2.505e-05,0.0,0 STARLINK-4108,1 52834U 22062E   23030.20120384  .00002505  00000-0  17545-3 0  9999,2 52834  53.2167  87.0320 0000954  87.7951 272.3151 15.08834333 34515,6917.898,95.438,540.423,539.103,0.0
52834.0,STARLINK-4108,PAYLOAD,2023-01-30 12:46:39,15.08844506,0.0001269,53.2178,85.5453,97.5316,262.5821,0.00020166,2.923e-05,0.0,0 STARLINK-4108,1 52834U 22062E   23030.53239940  .00002923  00000-0  20166-3 0  9991,2 52834  53.2178  85.5453 0001269  97.5316 262.5821 15.08844506 34564,6917.867,95.437,540.609,538.854,0.0
52834.0,STARLINK-4108,PAYLOAD,2023-01-30 20:43:35,15.0884205,0.0001113,53.2178,84.0592,86.7311,273.3809,9.173e-05,1.172e-05,0.0,0 STARLINK-4108,1 52834U 22062E   23030.86360069  .00001172  00000-0  91730-4 0  9995,2 52834  53.2178  84.0592 0001113  86.7311 273.3809 15.08842050 34619,6917.874,95.437,540.509,538.969,0.0
52834.0,STARLINK-4108,PAYLOAD,2023-01-31 03:05:07,15.08836413,0.000108,53.2168,82.8697,90.2606,269.851,0.00011699,1.574e-05,0.0,0 STARLINK-4108,1 52834U 22062E   23031.12856392  .00001574  00000-0  11699-3 0  9995,2 52834  53.2168  82.8697 0001080  90.2606 269.8510 15.08836413 34659,6917.891,95.438,540.503,539.009,0.0
52834.0,STARLINK-4108,PAYLOAD,2023-01-31 12:37:26,15.08841402,0.0001029,53.217,81.0868,78.0536,282.0572,0.00018927,2.726e-05,0.0,0 STARLINK-4108,1 52834U 22062E   23031.52600243  .00002726  00000-0  18927-3 0  9992,2 52834  53.2170  81.0868 0001029  78.0536 282.0572 15.08841402 34718,6917.876,95.437,540.453,539.029,0.0
52834.0,STARLINK-4108,PAYLOAD,2023-01-31 20:34:22,15.08842276,0.0001234,53.2174,79.6002,81.5083,278.6049,4.2894e-05,3.95e-06,0.0,0 STARLINK-4108,1 52834U 22062E   23031.85720235  .00000395  00000-0  42894-4 0  9993,2 52834  53.2174  79.6002 0001234  81.5083 278.6049 15.08842276 34764,6917.873,95.437,540.592,538.885,0.0
52834.0,STARLINK-4108,PAYLOAD,2023-02-01 09:17:27,15.08845331,0.0001034,53.2168,77.2203,79.7438,280.3671,0.00010342,1.359e-05,0.0,0 STARLINK-4108,1 52834U 22062E   23032.38712057  .00001359  00000-0  10342-3 0  9998,2 52834  53.2168  77.2203 0001034  79.7438 280.3671 15.08845331 34840,6917.864,95.437,540.444,539.014,0.0
52834.0,STARLINK-4108,PAYLOAD,2023-02-01 12:28:13,15.08850625,0.0001364,53.2161,76.6252,93.45,266.6648,-8.4501e-06,-4.22e-06,0.0,0 STARLINK-4108,1 52834U 22062E   23032.51959734 -.00000422  00000-0 -84501-5 0  9990,2 52834  53.2161  76.6252 0001364  93.4500 266.6648 15.08850625 34864,6917.848,95.437,540.657,538.769,0.0
52834.0,STARLINK-4108,PAYLOAD,2023-02-02 02:46:42,15.0883857,0.0001332,53.216,73.9489,93.1807,266.9337,6.4838e-05,7.44e-06,0.0,0 STARLINK-4108,1 52834U 22062E   23033.11576458  .00000744  00000-0  64838-4 0  9990,2 52834  53.2160  73.9489 0001332  93.1807 266.9337 15.08838570 34950,6917.885,95.438,540.671,538.828,0.0
52834.0,STARLINK-4108,PAYLOAD,2023-02-02 12:19:00,15.08843307,0.0001296,53.2168,72.165,92.566,267.548,0.00010692,1.414e-05,0.0,0 STARLINK-4108,1 52834U 22062E   23033.51320246  .00001414  00000-0  10692-3 0  9999,2 52834  53.2168  72.1650 0001296  92.5660 267.5480 15.08843307 35016,6917.87,95.437,540.632,538.839,0.0
52834.0,STARLINK-4108,PAYLOAD,2023-02-03 12:09:47,15.08841957,0.0001241,53.2178,67.7027,104.786,255.327,3.5133e-05,2.71e-06,0.0,0 STARLINK-4108,1 52834U 22062E   23034.50680448  .00000271  00000-0  35133-4 0  9990,2 52834  53.2178  67.7027 0001241 104.7860 255.3270 15.08841957 35160,6917.874,95.437,540.598,538.881,0.0
52834.0,STARLINK-4108,PAYLOAD,2023-02-04 12:00:34,15.08849471,0.0001292,53.2185,63.2437,96.1636,263.9504,0.00017302,2.467e-05,0.0,0 STARLINK-4108,1 52834U 22062E   23035.50039865  .00002467  00000-0  17302-3 0  9998,2 52834  53.2185  63.2437 0001292  96.1636 263.9504 15.08849471 35316,6917.851,95.437,540.61,538.823,0.0
52834.0,STARLINK-4108,PAYLOAD,2023-02-04 18:22:07,15.08836614,0.0002083,53.2186,62.0535,76.6184,283.504,-5.2027e-08,-2.89e-06,0.0,0 STARLINK-4108,1 52834U 22062E   23035.76536918 -.00000289  00000-0 -52027-7 0  9996,2 52834  53.2186  62.0535 0002083  76.6184 283.5040 15.08836614 35355,6917.891,95.438,541.197,538.315,0.0
52834.0,STARLINK-4108,PAYLOAD,2023-02-05 05:29:50,15.08833613,0.0001232,53.2184,59.9726,98.4364,261.6768,2.351e-05,8.6e-07,0.0,0 STARLINK-4108,1 52834U 22062E   23036.22905394  .00000086  00000-0  23510-4 0  9991,2 52834  53.2184  59.9726 0001232  98.4364 261.6768 15.08833613 35425,6917.9,95.438,540.617,538.913,0.0
52834.0,STARLINK-4108,PAYLOAD,2023-02-05 08:40:36,15.088344,0.0001238,53.2185,59.3779,99.5187,260.5945,2.8018e-05,1.58e-06,0.0,0 STARLINK-4108,1 52834U 22062E   23036.36153338  .00000158  00000-0  28018-4 0  9997,2 52834  53.2185  59.3779 0001238  99.5187 260.5945 15.08834400 35441,6917.898,95.438,540.619,538.906,0.0
52834.0,STARLINK-4108,PAYLOAD,2023-02-06 05:20:36,15.08846436,0.0001112,53.22,55.513,99.6875,260.4243,7.4491e-05,8.98e-06,0.0,0 STARLINK-4108,1 52834U 22062E   23037.22264736  .00000898  00000-0  74491-4 0  9995,2 52834  53.2200  55.5130 0001112  99.6875 260.4243 15.08846436 35570,6917.861,95.437,540.495,538.956,0.0
52834.0,STARLINK-4108,PAYLOAD,2023-02-06 10:06:45,15.08848862,0.0001168,53.2176,54.6201,98.2725,261.84,0.0001484,2.075e-05,0.0,0 STARLINK-4108,1 52834U 22062E   23037.42136395  .00002075  00000-0  14840-3 0  9996,2 52834  53.2176  54.6201 0001168  98.2725 261.8400 15.08848862 35600,6917.853,95.437,540.526,538.91,0.0
52834.0,STARLINK-4108,PAYLOAD,2023-02-07 09:57:32,15.08856165,0.0001079,53.2177,50.1594,93.6127,266.4988,0.00037019,5.611e-05,0.0,0 STARLINK-4108,1 52834U 22062E   23038.41496122  .00005611  00000-0  37019-3 0  9995,2 52834  53.2177  50.1594 0001079  93.6127 266.4988 15.08856165 35756,6917.831,95.437,540.442,538.95,0.0
52834.0,STARLINK-4108,PAYLOAD,2023-02-08 06:37:33,15.08846432,0.0001131,53.2179,46.2939,97.2498,262.8622,0.00016909,2.405e-05,0.0,0 STARLINK-4108,1 52834U 22062E   23039.27608439  .00002405  00000-0  16909-3 0  9999,2 52834  53.2179  46.2939 0001131  97.2498 262.8622 15.08846432 35882,6917.861,95.437,540.508,538.943,0.0
